{
  "type": "FeatureCollection",
  "features": [
    {
      "type": "Feature",
      "properties": {
        "norad_id": 31952,
        "name": "FENGYUN 1C DEB",
        "group": "fengyun-1c-debris",
        "lat": -11.67011653561899,
        "lon": 115.78003699139423,
        "alt_km": 709.7802752161597,
        "timestamp": "2025-12-22T04:03:39.454577+00:00",
        "meta_object_name": "FENGYUN 1C DEB",
        "meta_object_id": "1999-025CND",
        "meta_epoch": "2025-12-21T06:38:16.029024",
        "meta_mean_motion": 14.53528655,
        "meta_eccentricity": 0.0114099,
        "meta_inclination": 98.9556,
        "meta_ra_of_asc_node": 112.9598,
        "meta_arg_of_pericenter": 266.5142,
        "meta_mean_anomaly": 92.2996,
        "meta_ephemeris_type": 0,
        "meta_classification_type": "U",
        "meta_norad_cat_id": 31952,
        "meta_element_set_no": 999,
        "meta_rev_at_epoch": 97333,
        "meta_bstar": 0.00040334,
        "meta_mean_motion_dot": 1.775e-05,
        "meta_mean_motion_ddot": 0,
        "tle_line1": "1 31952U 99025CND 25355.27657441  .00001775  00000+0  40334-3 0  9997",
        "tle_line2": "2 31952  98.9556 112.9598 0114099 266.5142  92.2996 14.53528655973335"
      },
      "geometry": {
        "type": "Point",
        "coordinates": [
          115.78003699139423,
          -11.67011653561899
        ]
      }
    },
    {
      "type": "Feature",
      "properties": {
        "norad_id": 31955,
        "name": "FENGYUN 1C DEB",
        "group": "fengyun-1c-debris",
        "lat": 22.27905900658069,
        "lon": -129.67785994179587,
        "alt_km": 699.2164504608527,
        "timestamp": "2025-12-22T04:03:39.454587+00:00",
        "meta_object_name": "FENGYUN 1C DEB",
        "meta_object_id": "1999-025CNG",
        "meta_epoch": "2025-12-21T12:07:00.179616",
        "meta_mean_motion": 14.64020108,
        "meta_eccentricity": 0.00435609,
        "meta_inclination": 99.2808,
        "meta_ra_of_asc_node": 233.4159,
        "meta_arg_of_pericenter": 153.9009,
        "meta_mean_anomaly": 329.7896,
        "meta_ephemeris_type": 0,
        "meta_classification_type": "U",
        "meta_norad_cat_id": 31955,
        "meta_element_set_no": 999,
        "meta_rev_at_epoch": 96685,
        "meta_bstar": 0.0011734313,
        "meta_mean_motion_dot": 6.181e-05,
        "meta_mean_motion_ddot": 0,
        "tle_line1": "1 31955U 99025CNG 25355.50486319  .00006181  00000+0  11734-2 0  9997",
        "tle_line2": "2 31955  99.2808 233.4159 0043560 153.9009 329.7896 14.64020108966857"
      },
      "geometry": {
        "type": "Point",
        "coordinates": [
          -129.67785994179587,
          22.27905900658069
        ]
      }
    },
    {
      "type": "Feature",
      "properties": {
        "norad_id": 31959,
        "name": "FENGYUN 1C DEB",
        "group": "fengyun-1c-debris",
        "lat": -29.942224700384116,
        "lon": 42.27425346575212,
        "alt_km": 739.7810220488054,
        "timestamp": "2025-12-22T04:03:39.454597+00:00",
        "meta_object_name": "FENGYUN 1C DEB",
        "meta_object_id": "1999-025CNL",
        "meta_epoch": "2025-12-21T08:50:18.065760",
        "meta_mean_motion": 14.4688457,
        "meta_eccentricity": 0.00273265,
        "meta_inclination": 98.5101,
        "meta_ra_of_asc_node": 226.4172,
        "meta_arg_of_pericenter": 128.2219,
        "meta_mean_anomaly": 232.1439,
        "meta_ephemeris_type": 0,
        "meta_classification_type": "U",
        "meta_norad_cat_id": 31959,
        "meta_element_set_no": 999,
        "meta_rev_at_epoch": 64478,
        "meta_bstar": 0.0018094712,
        "meta_mean_motion_dot": 6.556e-05,
        "meta_mean_motion_ddot": 0,
        "tle_line1": "1 31959U 99025CNL 25355.36826465  .00006556  00000+0  18095-2 0  9998",
        "tle_line2": "2 31959  98.5101 226.4172 0027326 128.2219 232.1439 14.46884570644782"
      },
      "geometry": {
        "type": "Point",
        "coordinates": [
          42.27425346575212,
          -29.942224700384116
        ]
      }
    },
    {
      "type": "Feature",
      "properties": {
        "norad_id": 31964,
        "name": "FENGYUN 1C DEB",
        "group": "fengyun-1c-debris",
        "lat": 29.408459418504723,
        "lon": 115.29094576555157,
        "alt_km": 678.3609860839551,
        "timestamp": "2025-12-22T04:03:39.454608+00:00",
        "meta_object_name": "FENGYUN 1C DEB",
        "meta_object_id": "1999-025CNR",
        "meta_epoch": "2025-12-18T07:43:56.657856",
        "meta_mean_motion": 14.58617923,
        "meta_eccentricity": 0.00284532,
        "meta_inclination": 98.701,
        "meta_ra_of_asc_node": 116.2166,
        "meta_arg_of_pericenter": 12.48,
        "meta_mean_anomaly": 347.7096,
        "meta_ephemeris_type": 0,
        "meta_classification_type": "U",
        "meta_norad_cat_id": 31964,
        "meta_element_set_no": 999,
        "meta_rev_at_epoch": 67591,
        "meta_bstar": 0.002099061,
        "meta_mean_motion_dot": 9.789e-05,
        "meta_mean_motion_ddot": 0,
        "tle_line1": "1 31964U 99025CNR 25352.32218354  .00009789  00000+0  20991-2 0  9998",
        "tle_line2": "2 31964  98.7010 116.2166 0028453  12.4800 347.7096 14.58617923675910"
      },
      "geometry": {
        "type": "Point",
        "coordinates": [
          115.29094576555157,
          29.408459418504723
        ]
      }
    },
    {
      "type": "Feature",
      "properties": {
        "norad_id": 31966,
        "name": "FENGYUN 1C DEB",
        "group": "fengyun-1c-debris",
        "lat": -44.95687675196283,
        "lon": 158.83239128027046,
        "alt_km": 652.7585099616381,
        "timestamp": "2025-12-22T04:03:39.454618+00:00",
        "meta_object_name": "FENGYUN 1C DEB",
        "meta_object_id": "1999-025CNT",
        "meta_epoch": "2025-12-17T16:16:36.229440",
        "meta_mean_motion": 14.67608917,
        "meta_eccentricity": 0.00860626,
        "meta_inclination": 99.0168,
        "meta_ra_of_asc_node": 144.7692,
        "meta_arg_of_pericenter": 259.558,
        "meta_mean_anomaly": 99.5915,
        "meta_ephemeris_type": 0,
        "meta_classification_type": "U",
        "meta_norad_cat_id": 31966,
        "meta_element_set_no": 999,
        "meta_rev_at_epoch": 65815,
        "meta_bstar": 0.00097782507,
        "meta_mean_motion_dot": 5.813e-05,
        "meta_mean_motion_ddot": 0,
        "tle_line1": "1 31966U 99025CNT 25351.67819710  .00005813  00000+0  97783-3 0  9998",
        "tle_line2": "2 31966  99.0168 144.7692 0086062 259.5580  99.5915 14.67608917658151"
      },
      "geometry": {
        "type": "Point",
        "coordinates": [
          158.83239128027046,
          -44.95687675196283
        ]
      }
    },
    {
      "type": "Feature",
      "properties": {
        "norad_id": 31972,
        "name": "FENGYUN 1C DEB",
        "group": "fengyun-1c-debris",
        "lat": 60.47558134033562,
        "lon": -125.35247795528589,
        "alt_km": 882.7577695843001,
        "timestamp": "2025-12-22T04:03:39.454628+00:00",
        "meta_object_name": "FENGYUN 1C DEB",
        "meta_object_id": "1999-025CNZ",
        "meta_epoch": "2025-12-21T14:35:05.540064",
        "meta_mean_motion": 14.07517867,
        "meta_eccentricity": 0.0076547,
        "meta_inclination": 99.2104,
        "meta_ra_of_asc_node": 37.427,
        "meta_arg_of_pericenter": 7.2495,
        "meta_mean_anomaly": 146.4463,
        "meta_ephemeris_type": 0,
        "meta_classification_type": "U",
        "meta_norad_cat_id": 31972,
        "meta_element_set_no": 999,
        "meta_rev_at_epoch": 95085,
        "meta_bstar": 0.0001123,
        "meta_mean_motion_dot": 1.48e-06,
        "meta_mean_motion_ddot": 0,
        "tle_line1": "1 31972U 99025CNZ 25355.60770301  .00000148  00000+0  11230-3 0  9993",
        "tle_line2": "2 31972  99.2104  37.4270 0076547   7.2495 146.4463 14.07517867950859"
      },
      "geometry": {
        "type": "Point",
        "coordinates": [
          -125.35247795528589,
          60.47558134033562
        ]
      }
    },
    {
      "type": "Feature",
      "properties": {
        "norad_id": 31974,
        "name": "FENGYUN 1C DEB",
        "group": "fengyun-1c-debris",
        "lat": -72.25031383936137,
        "lon": 159.523184488676,
        "alt_km": 752.24985388606,
        "timestamp": "2025-12-22T04:03:39.454638+00:00",
        "meta_object_name": "FENGYUN 1C DEB",
        "meta_object_id": "1999-025CPB",
        "meta_epoch": "2025-12-21T18:28:16.953888",
        "meta_mean_motion": 14.29620732,
        "meta_eccentricity": 0.0071378,
        "meta_inclination": 98.3788,
        "meta_ra_of_asc_node": 6.554,
        "meta_arg_of_pericenter": 275.8649,
        "meta_mean_anomaly": 83.4401,
        "meta_ephemeris_type": 0,
        "meta_classification_type": "U",
        "meta_norad_cat_id": 31974,
        "meta_element_set_no": 999,
        "meta_rev_at_epoch": 69551,
        "meta_bstar": 0.0018711,
        "meta_mean_motion_dot": 4.885e-05,
        "meta_mean_motion_ddot": 0,
        "tle_line1": "1 31974U 99025CPB 25355.76964067  .00004885  00000+0  18711-2 0  9998",
        "tle_line2": "2 31974  98.3788   6.5540 0071378 275.8649  83.4401 14.29620732695518"
      },
      "geometry": {
        "type": "Point",
        "coordinates": [
          159.523184488676,
          -72.25031383936137
        ]
      }
    }
  ]
}